[{"OBJECT_NAME":"STARLINK-30219","OBJECT_ID":"2023-113N","EPOCH":"2026-03-09T22:00:01.999584","MEAN_MOTION":15.21768121,"ECCENTRICITY":0.00012669,"INCLINATION":43.0005,"RA_OF_ASC_NODE":15.1383,"ARG_OF_PERICENTER":299.1137,"MEAN_ANOMALY":139.1859,"EPHEMERIS_TYPE":0,"CLASSIFICATION_TYPE":"U","NORAD_CAT_ID":57507,"ELEMENT_SET_NO":999,"REV_AT_EPOCH":572,"BSTAR":0.033850626,"MEAN_MOTION_DOT":0.00840089,"MEAN_MOTION_DDOT":0},{"OBJECT_NAME":"OBJECT E","OBJECT_ID":"2026-023E","EPOCH":"2026-03-09T23:33:47.695392","MEAN_MOTION":15.23129165,"ECCENTRICITY":0.00204824,"INCLINATION":96.6311,"RA_OF_ASC_NODE":141.8855,"ARG_OF_PERICENTER":125.9066,"MEAN_ANOMALY":234.4078,"EPHEMERIS_TYPE":0,"CLASSIFICATION_TYPE":"U","NORAD_CAT_ID":67678,"ELEMENT_SET_NO":999,"REV_AT_EPOCH":489,"BSTAR":0.00066049733,"MEAN_MOTION_DOT":0.00015639,"MEAN_MOTION_DDOT":0}]
